IRIDIUM 921 [-]         
1 24873U 97034E   23309.71714102  .00025095  00000+0  93390-3 0  9994
2 24873  86.3897  38.0180 0005789  42.6473 317.5222 15.27356769440801
IRIDIUM 26 [-]          
1 24903U 97043A   23309.84839934  .00000977  00000+0  32931-3 0  9999
2 24903  86.3991 357.8921 0001986  95.3282 264.8142 14.36069596372136
IRIDIUM 22 [-]          
1 24907U 97043E   23309.87121931  .00000990  00000+0  34107-3 0  9999
2 24907  86.3998   0.9397 0002156  91.4867 268.6576 14.34977042372232
DUMMY MASS 1 [-]        
1 24925U 97048A   23309.76155146  .00000957  00000+0  10658-3 0  9995
2 24925  86.3376  47.6368 0009150  78.6589 281.5663 14.85910959417575
DUMMY MASS 2 [-]        
1 24926U 97048B   23309.76190189  .00000962  00000+0  10769-3 0  9991
2 24926  86.3373  49.1401 0010025  86.6724 273.5647 14.85672070417360
IRIDIUM 29 [-]          
1 24944U 97051A   23309.73600202  .00000640  00000+0  21599-3 0  9990
2 24944  86.4004  30.9568 0002225  87.3234 272.8217 14.35429727368680
IRIDIUM 33 [-]          
1 24946U 97051C   23309.76799534  .00000590  00000+0  20380-3 0  9993
2 24946  86.3918  30.2166 0007504 186.1671 173.9434 14.34167145368246
IRIDIUM 28 [-]          
1 24948U 97051E   23309.74841036  .00000808  00000+0  26970-3 0  9991
2 24948  86.4009  28.8072 0001910 104.0490 256.0920 14.36372466369208
